start=new Date('2023-06-27T00:00:00.000Z').valueOf();
sats=[{"INCLINATION":"42.9877","OBJECT_ID":"2023-026D","MEAN_MOTION_DDOT":"0.0022301000000","MEAN_ELEMENT_THEORY":"SGP4","GP_ID":"234568557","COUNTRY_CODE":"US","RCS_SIZE":"LARGE","EPHEMERIS_TYPE":"0","CENTER_NAME":"EARTH","LAUNCH_DATE":"2023-02-27","OBJECT_TYPE":"PAYLOAD","TLE_LINE1":"1 55698U 23026D   23177.73369678  .01647542  22301-2  12433-2 0  9999","REV_AT_EPOCH":"1978","APOAPSIS":"243.784","ECCENTRICITY":"0.00144600","TIME_SYSTEM":"UTC","SEMIMAJOR_AXIS":"6612.358","MEAN_MOTION_DOT":"0.01647542","PERIAPSIS":"224.661","SITE":"AFETR","MEAN_MOTION":"16.14612222","PERIOD":"89.186","DECAY_DATE":null,"NORAD_CAT_ID":"55698","MEAN_ANOMALY":"131.3618","OBJECT_NAME":"STARLINK-30061","ARG_OF_PERICENTER":"359.4162","ELEMENT_SET_NO":"999","REF_FRAME":"TEME","TLE_LINE2":"2 55698  42.9877 280.8904 0014460 359.4162 131.3618 16.14612222 19783","RA_OF_ASC_NODE":"280.8904","FILE":"3943431","CLASSIFICATION_TYPE":"U","BSTAR":"0.00124330000000","EPOCH":"2023-06-26T17:36:31.401792"},{"PERIOD":"91.641","MEAN_MOTION":"15.71340942","ELEMENT_SET_NO":"999","ARG_OF_PERICENTER":"293.4583","OBJECT_NAME":"STARLINK-30055","NORAD_CAT_ID":"55699","MEAN_ANOMALY":"66.6033","DECAY_DATE":null,"REF_FRAME":"TEME","EPOCH":"2023-06-26T16:21:01.557792","BSTAR":"-0.00001439900000","CLASSIFICATION_TYPE":"U","RA_OF_ASC_NODE":"288.9460","TLE_LINE2":"2 55699  43.0012 288.9460 0002386 293.4583  66.6033 15.71340942 19680","FILE":"3943698","GP_ID":"234575039","MEAN_ELEMENT_THEORY":"SGP4","MEAN_MOTION_DDOT":"0.0000000000000","OBJECT_ID":"2023-026E","INCLINATION":"43.0012","EPHEMERIS_TYPE":"0","RCS_SIZE":"LARGE","COUNTRY_CODE":"US","TLE_LINE1":"1 55699U 23026E   23177.68126803 -.00002340  00000-0 -14399-4 0  9992","REV_AT_EPOCH":"1968","OBJECT_TYPE":"PAYLOAD","CENTER_NAME":"EARTH","LAUNCH_DATE":"2023-02-27","SITE":"AFETR","PERIAPSIS":"353.459","MEAN_MOTION_DOT":"-0.00002340","SEMIMAJOR_AXIS":"6733.201","TIME_SYSTEM":"UTC","ECCENTRICITY":"0.00023860","APOAPSIS":"356.672"},{"EPHEMERIS_TYPE":"0","COUNTRY_CODE":"US","RCS_SIZE":"LARGE","GP_ID":"234574946","MEAN_MOTION_DDOT":"0.0000000000000","MEAN_ELEMENT_THEORY":"SGP4","OBJECT_ID":"2023-026F","INCLINATION":"43.0010","SITE":"AFETR","MEAN_MOTION_DOT":"-0.00001551","PERIAPSIS":"353.520","TIME_SYSTEM":"UTC","SEMIMAJOR_AXIS":"6733.195","ECCENTRICITY":"0.00022860","APOAPSIS":"356.599","OBJECT_TYPE":"PAYLOAD","REV_AT_EPOCH":"1968","TLE_LINE1":"1 55700U 23026F   23177.69041119 -.00001551  00000-0 -83800-5 0  9999","CENTER_NAME":"EARTH","LAUNCH_DATE":"2023-02-27","ELEMENT_SET_NO":"999","ARG_OF_PERICENTER":"275.9667","OBJECT_NAME":"STARLINK-30064","NORAD_CAT_ID":"55700","MEAN_ANOMALY":"84.0940","DECAY_DATE":null,"MEAN_MOTION":"15.71343087","PERIOD":"91.641","EPOCH":"2023-06-26T16:34:11.526816","BSTAR":"-0.00000838000000","CLASSIFICATION_TYPE":"U","TLE_LINE2":"2 55700  43.0010 289.0225 0002286 275.9667  84.0940 15.71343087 19683","RA_OF_ASC_NODE":"289.0225","FILE":"3943698","REF_FRAME":"TEME"},{"OBJECT_ID":"2023-026G","INCLINATION":"43.0003","GP_ID":"234575042","MEAN_MOTION_DDOT":"0.0000000000000","MEAN_ELEMENT_THEORY":"SGP4","RCS_SIZE":"LARGE","COUNTRY_CODE":"US","EPHEMERIS_TYPE":"0","TLE_LINE1":"1 55701U 23026G   23177.68795127 -.00003847  00000-0 -25893-4 0  9991","REV_AT_EPOCH":"1968","OBJECT_TYPE":"PAYLOAD","LAUNCH_DATE":"2023-02-27","CENTER_NAME":"EARTH","SEMIMAJOR_AXIS":"6733.150","TIME_SYSTEM":"UTC","ECCENTRICITY":"0.00018340","APOAPSIS":"356.250","SITE":"AFETR","PERIAPSIS":"353.781","MEAN_MOTION_DOT":"-0.00003847","PERIOD":"91.640","MEAN_MOTION":"15.71358536","MEAN_ANOMALY":"74.3098","NORAD_CAT_ID":"55701","DECAY_DATE":null,"ELEMENT_SET_NO":"999","ARG_OF_PERICENTER":"285.7567","OBJECT_NAME":"STARLINK-30065","REF_FRAME":"TEME","CLASSIFICATION_TYPE":"U","FILE":"3943698","TLE_LINE2":"2 55701  43.0003 289.0035 0001834 285.7567  74.3098 15.71358536 19682","RA_OF_ASC_NODE":"289.0035","EPOCH":"2023-06-26T16:30:38.989728","BSTAR":"-0.00002589300000"},{"SITE":"AFETR","PERIAPSIS":"477.041","MEAN_MOTION_DOT":"-0.00001207","TIME_SYSTEM":"UTC","SEMIMAJOR_AXIS":"6856.260","APOAPSIS":"479.210","ECCENTRICITY":"0.00015820","TLE_LINE1":"1 55702U 23026H   23177.45159316 -.00001207  00000-0 -32484-4 0  9993","REV_AT_EPOCH":"1932","OBJECT_TYPE":"PAYLOAD","LAUNCH_DATE":"2023-02-27","CENTER_NAME":"EARTH","EPHEMERIS_TYPE":"0","RCS_SIZE":"LARGE","COUNTRY_CODE":"US","GP_ID":"234574950","MEAN_ELEMENT_THEORY":"SGP4","MEAN_MOTION_DDOT":"0.0000000000000","OBJECT_ID":"2023-026H","INCLINATION":"43.0038","EPOCH":"2023-06-26T10:50:17.649024","BSTAR":"-0.00003248400000","CLASSIFICATION_TYPE":"U","FILE":"3943698","TLE_LINE2":"2 55702  43.0038 318.7756 0001582 295.4435  64.6253 15.29226520 19329","RA_OF_ASC_NODE":"318.7756","REF_FRAME":"TEME","ARG_OF_PERICENTER":"295.4435","ELEMENT_SET_NO":"999","OBJECT_NAME":"STARLINK-30042","MEAN_ANOMALY":"64.6253","NORAD_CAT_ID":"55702","DECAY_DATE":null,"PERIOD":"94.165","MEAN_MOTION":"15.29226520"},{"EPOCH":"2023-06-26T10:43:52.411296","BSTAR":"-0.00008695600000","CLASSIFICATION_TYPE":"U","FILE":"3943703","TLE_LINE2":"2 55704  43.0008 318.7489 0001518 276.8664  83.2016 15.29232796 19323","RA_OF_ASC_NODE":"318.7489","REF_FRAME":"TEME","ELEMENT_SET_NO":"999","ARG_OF_PERICENTER":"276.8664","OBJECT_NAME":"STARLINK-30051","MEAN_ANOMALY":"83.2016","NORAD_CAT_ID":"55704","DECAY_DATE":null,"PERIOD":"94.165","MEAN_MOTION":"15.29232796","SITE":"AFETR","PERIAPSIS":"477.066","MEAN_MOTION_DOT":"-0.00002783","SEMIMAJOR_AXIS":"6856.241","TIME_SYSTEM":"UTC","APOAPSIS":"479.147","ECCENTRICITY":"0.00015180","REV_AT_EPOCH":"1932","TLE_LINE1":"1 55704U 23026K   23177.44713439 -.00002783  00000-0 -86956-4 0  9999","OBJECT_TYPE":"PAYLOAD","LAUNCH_DATE":"2023-02-27","CENTER_NAME":"EARTH","EPHEMERIS_TYPE":"0","RCS_SIZE":"LARGE","COUNTRY_CODE":"US","GP_ID":"234575056","MEAN_MOTION_DDOT":"0.0000000000000","MEAN_ELEMENT_THEORY":"SGP4","OBJECT_ID":"2023-026K","INCLINATION":"43.0008"},{"GP_ID":"234568865","MEAN_ELEMENT_THEORY":"SGP4","MEAN_MOTION_DDOT":"0.0000000000000","OBJECT_ID":"2023-026L","INCLINATION":"42.9977","EPHEMERIS_TYPE":"0","COUNTRY_CODE":"US","RCS_SIZE":"LARGE","OBJECT_TYPE":"PAYLOAD","TLE_LINE1":"1 55705U 23026L   23177.68723855 -.00051667  00000-0 -39284-3 0  9995","REV_AT_EPOCH":"1968","LAUNCH_DATE":"2023-02-27","CENTER_NAME":"EARTH","SITE":"AFETR","MEAN_MOTION_DOT":"-0.00051667","PERIAPSIS":"353.524","SEMIMAJOR_AXIS":"6733.139","TIME_SYSTEM":"UTC","ECCENTRICITY":"0.00021980","APOAPSIS":"356.484","MEAN_MOTION":"15.71362386","PERIOD":"91.640","ARG_OF_PERICENTER":"287.1336","ELEMENT_SET_NO":"999","OBJECT_NAME":"STARLINK-30057","NORAD_CAT_ID":"55705","MEAN_ANOMALY":"72.9291","DECAY_DATE":null,"REF_FRAME":"TEME","EPOCH":"2023-06-26T16:29:37.410720","BSTAR":"-0.00039284000000","CLASSIFICATION_TYPE":"U","TLE_LINE2":"2 55705  42.9977 289.0032 0002198 287.1336  72.9291 15.71362386 19682","RA_OF_ASC_NODE":"289.0032","FILE":"3943446"},{"SITE":"AFETR","PERIAPSIS":"353.958","MEAN_MOTION_DOT":"-0.00020049","SEMIMAJOR_AXIS":"6733.150","TIME_SYSTEM":"UTC","ECCENTRICITY":"0.00015690","APOAPSIS":"356.071","REV_AT_EPOCH":"1968","TLE_LINE1":"1 55707U 23026N   23177.68763226 -.00020049  00000-0 -14979-3 0  9997","OBJECT_TYPE":"PAYLOAD","LAUNCH_DATE":"2023-02-27","CENTER_NAME":"EARTH","EPHEMERIS_TYPE":"0","RCS_SIZE":"LARGE","COUNTRY_CODE":"US","GP_ID":"234575057","MEAN_ELEMENT_THEORY":"SGP4","MEAN_MOTION_DDOT":"0.0000000000000","OBJECT_ID":"2023-026N","INCLINATION":"42.9976","EPOCH":"2023-06-26T16:30:11.427264","BSTAR":"-0.00014979000000","CLASSIFICATION_TYPE":"U","TLE_LINE2":"2 55707  42.9976 289.0096 0001569 301.9514  58.1202 15.71358699 19687","FILE":"3943703","RA_OF_ASC_NODE":"289.0096","REF_FRAME":"TEME","ARG_OF_PERICENTER":"301.9514","ELEMENT_SET_NO":"999","OBJECT_NAME":"STARLINK-30060","NORAD_CAT_ID":"55707","MEAN_ANOMALY":"58.1202","DECAY_DATE":null,"PERIOD":"91.640","MEAN_MOTION":"15.71358699"},{"ELEMENT_SET_NO":"999","ARG_OF_PERICENTER":"270.6884","OBJECT_NAME":"STARLINK-30058","NORAD_CAT_ID":"55708","MEAN_ANOMALY":"89.3726","DECAY_DATE":null,"PERIOD":"94.164","MEAN_MOTION":"15.29251825","EPOCH":"2023-06-26T08:59:30.036480","BSTAR":"0.00000560780000","CLASSIFICATION_TYPE":"U","TLE_LINE2":"2 55708  43.0011 319.0637 0002113 270.6884  89.3726 15.29251825 19327","FILE":"3943409","RA_OF_ASC_NODE":"319.0637","REF_FRAME":"TEME","EPHEMERIS_TYPE":"0","RCS_SIZE":"LARGE","COUNTRY_CODE":"US","GP_ID":"234568071","MEAN_ELEMENT_THEORY":"SGP4","MEAN_MOTION_DDOT":"0.0000000000000","OBJECT_ID":"2023-026P","INCLINATION":"43.0011","SITE":"AFETR","PERIAPSIS":"476.601","MEAN_MOTION_DOT":"-0.00000105","SEMIMAJOR_AXIS":"6856.185","TIME_SYSTEM":"UTC","APOAPSIS":"479.498","ECCENTRICITY":"0.00021130","REV_AT_EPOCH":"1932","TLE_LINE1":"1 55708U 23026P   23177.37465320 -.00000105  00000-0  56078-5 0  9996","OBJECT_TYPE":"PAYLOAD","LAUNCH_DATE":"2023-02-27","CENTER_NAME":"EARTH"},{"REF_FRAME":"TEME","BSTAR":"0.00004128700000","EPOCH":"2023-06-26T14:57:49.865184","TLE_LINE2":"2 55709  43.0008 289.3770 0001539 241.4585 118.6128 15.71371405 19670","FILE":"3943703","RA_OF_ASC_NODE":"289.3770","CLASSIFICATION_TYPE":"U","PERIOD":"91.640","MEAN_MOTION":"15.71371405","OBJECT_NAME":"STARLINK-30047","ELEMENT_SET_NO":"999","ARG_OF_PERICENTER":"241.4585","DECAY_DATE":null,"MEAN_ANOMALY":"118.6128","NORAD_CAT_ID":"55709","CENTER_NAME":"EARTH","LAUNCH_DATE":"2023-02-27","REV_AT_EPOCH":"1967","TLE_LINE1":"1 55709U 23026Q   23177.62349381  .00004969  00000-0  41287-4 0  9999","OBJECT_TYPE":"PAYLOAD","PERIAPSIS":"353.942","MEAN_MOTION_DOT":"0.00004969","SITE":"AFETR","ECCENTRICITY":"0.00015390","APOAPSIS":"356.015","TIME_SYSTEM":"UTC","SEMIMAJOR_AXIS":"6733.114","MEAN_MOTION_DDOT":"0.0000000000000","MEAN_ELEMENT_THEORY":"SGP4","GP_ID":"234575052","INCLINATION":"43.0008","OBJECT_ID":"2023-026Q","EPHEMERIS_TYPE":"0","RCS_SIZE":"LARGE","COUNTRY_CODE":"US"}];
